{"type": "FeatureCollection", "features": [ {"type": "Feature", "properties": {"norad_id": 67041, "name": "STARLINK-35765", "group": "last-30-days", "lat": -40.7536626144213, "lon": -20.787549481337493, "alt_km": 386.8080482227697, "timestamp": "2025-12-27T14:26:29.245866+00:00", "meta": {"OBJECT_NAME": "STARLINK-35765", "OBJECT_ID": "2025-294M", "EPOCH": "2025-12-27T06:00:02.000160", "MEAN_MOTION": 15.62544949, "ECCENTRICITY": 0.00014277, "INCLINATION": 42.9995, "RA_OF_ASC_NODE": 93.6646, "ARG_OF_PERICENTER": 279.9747, "MEAN_ANOMALY": 153.4046, "EPHEMERIS_TYPE": 0, "CLASSIFICATION_TYPE": "U", "NORAD_CAT_ID": 67041, "ELEMENT_SET_NO": 999, "REV_AT_EPOCH": 244, "BSTAR": -0.023360536, "MEAN_MOTION_DOT": -0.01895536, "MEAN_MOTION_DDOT": 0}, "tle": {"line1": "1 67041U 25294M   25361.25002315 -.01895536  00000+0 -23361-1 0  9999", "line2": "2 67041  42.9995  93.6646 0001427 279.9747 153.4046 15.62544949  2443"}}, "geometry": {"type": "Point", "coordinates": [-20.787549481337493, -40.7536626144213]}}, {"type": "Feature", "properties": {"norad_id": 67042, "name": "STARLINK-35773", "group": "last-30-days", "lat": -41.24710072111549, "lon": -18.20445148327185, "alt_km": 386.8507499946927, "timestamp": "2025-12-27T14:26:29.245876+00:00", "meta": {"OBJECT_NAME": "STARLINK-35773", "OBJECT_ID": "2025-294N", "EPOCH": "2025-12-27T06:00:02.000160", "MEAN_MOTION": 15.62535273, "ECCENTRICITY": 0.00014047, "INCLINATION": 42.9993, "RA_OF_ASC_NODE": 93.6598, "ARG_OF_PERICENTER": 279.509, "MEAN_ANOMALY": 155.9003, "EPHEMERIS_TYPE": 0, "CLASSIFICATION_TYPE": "U", "NORAD_CAT_ID": 67042, "ELEMENT_SET_NO": 999, "REV_AT_EPOCH": 263, "BSTAR": -0.023400297, "MEAN_MOTION_DOT": -0.01897732, "MEAN_MOTION_DDOT": 0}, "tle": {"line1": "1 67042U 25294N   25361.25002315 -.01897732  00000+0 -23400-1 0  9994", "line2": "2 67042  42.9993  93.6598 0001404 279.5090 155.9003 15.62535273  2631"}}, "geometry": {"type": "Point", "coordinates": [-18.20445148327185, -41.24710072111549]}}, {"type": "Feature", "properties": {"norad_id": 67043, "name": "STARLINK-35901", "group": "last-30-days", "lat": -41.68038251260367, "lon": -15.59619342331208, "alt_km": 386.9349345426517, "timestamp": "2025-12-27T14:26:29.245886+00:00", "meta": {"OBJECT_NAME": "STARLINK-35901", "OBJECT_ID": "2025-294P", "EPOCH": "2025-12-27T06:00:02.000160", "MEAN_MOTION": 15.62529446, "ECCENTRICITY": 0.00013451, "INCLINATION": 42.9994, "RA_OF_ASC_NODE": 93.654, "ARG_OF_PERICENTER": 280.4841, "MEAN_ANOMALY": 156.9463, "EPHEMERIS_TYPE": 0, "CLASSIFICATION_TYPE": "U", "NORAD_CAT_ID": 67043, "ELEMENT_SET_NO": 999, "REV_AT_EPOCH": 263, "BSTAR": -0.023533306, "MEAN_MOTION_DOT": -0.01906835, "MEAN_MOTION_DDOT": 0}, "tle": {"line1": "1 67043U 25294P   25361.25002315 -.01906835  00000+0 -23533-1 0  9997", "line2": "2 67043  42.9994  93.6540 0001345 280.4841 156.9463 15.62529446  2635"}}, "geometry": {"type": "Point", "coordinates": [-15.59619342331208, -41.68038251260367]}}, {"type": "Feature", "properties": {"norad_id": 67044, "name": "STARLINK-35884", "group": "last-30-days", "lat": -42.050335281660224, "lon": -12.979175296328425, "alt_km": 386.89688390118044, "timestamp": "2025-12-27T14:26:29.245898+00:00", "meta": {"OBJECT_NAME": "STARLINK-35884", "OBJECT_ID": "2025-294Q", "EPOCH": "2025-12-27T06:00:02.000160", "MEAN_MOTION": 15.6252116, "ECCENTRICITY": 0.00014258, "INCLINATION": 42.9995, "RA_OF_ASC_NODE": 93.6499, "ARG_OF_PERICENTER": 279.8822, "MEAN_ANOMALY": 159.5471, "EPHEMERIS_TYPE": 0, "CLASSIFICATION_TYPE": "U", "NORAD_CAT_ID": 67044, "ELEMENT_SET_NO": 999, "REV_AT_EPOCH": 263, "BSTAR": -0.023516371, "MEAN_MOTION_DOT": -0.01905126, "MEAN_MOTION_DDOT": 0}, "tle": {"line1": "1 67044U 25294Q   25361.25002315 -.01905126  00000+0 -23516-1 0  9991", "line2": "2 67044  42.9995  93.6499 0001425 279.8822 159.5471 15.62521160  2633"}}, "geometry": {"type": "Point", "coordinates": [-12.979175296328425, -42.050335281660224]}}, {"type": "Feature", "properties": {"norad_id": 67045, "name": "STARLINK-35891", "group": "last-30-days", "lat": -42.37654279209746, "lon": -10.17547891098037, "alt_km": 386.9016182320265, "timestamp": "2025-12-27T14:26:29.245910+00:00", "meta": {"OBJECT_NAME": "STARLINK-35891", "OBJECT_ID": "2025-294R", "EPOCH": "2025-12-27T06:00:02.000160", "MEAN_MOTION": 15.62498317, "ECCENTRICITY": 0.00015443, "INCLINATION": 42.9995, "RA_OF_ASC_NODE": 93.6443, "ARG_OF_PERICENTER": 282.0113, "MEAN_ANOMALY": 159.5568, "EPHEMERIS_TYPE": 0, "CLASSIFICATION_TYPE": "U", "NORAD_CAT_ID": 67045, "ELEMENT_SET_NO": 999, "REV_AT_EPOCH": 255, "BSTAR": -0.023531715, "MEAN_MOTION_DOT": -0.01904786, "MEAN_MOTION_DDOT": 0}, "tle": {"line1": "1 67045U 25294R   25361.25002315 -.01904786  00000+0 -23532-1 0  9991", "line2": "2 67045  42.9995  93.6443 0001544 282.0113 159.5568 15.62498317  2559"}}, "geometry": {"type": "Point", "coordinates": [-10.17547891098037, -42.37654279209746]}}, {"type": "Feature", "properties": {"norad_id": 67046, "name": "STARLINK-35721", "group": "last-30-days", "lat": -42.62615044178214, "lon": -7.436074237408892, "alt_km": 387.1124702229863, "timestamp": "2025-12-27T14:26:29.245920+00:00", "meta": {"OBJECT_NAME": "STARLINK-35721", "OBJECT_ID": "2025-294S", "EPOCH": "2025-12-27T06:00:02.000160", "MEAN_MOTION": 15.62491841, "ECCENTRICITY": 0.00012706, "INCLINATION": 42.9992, "RA_OF_ASC_NODE": 93.6383, "ARG_OF_PERICENTER": 279.8836, "MEAN_ANOMALY": 163.7417, "EPHEMERIS_TYPE": 0, "CLASSIFICATION_TYPE": "U", "NORAD_CAT_ID": 67046, "ELEMENT_SET_NO": 999, "REV_AT_EPOCH": 263, "BSTAR": -0.02377184, "MEAN_MOTION_DOT": -0.01921319, "MEAN_MOTION_DDOT": 0}, "tle": {"line1": "1 67046U 25294S   25361.25002315 -.01921319  00000+0 -23772-1 0  9999", "line2": "2 67046  42.9992  93.6383 0001270 279.8836 163.7417 15.62491841  2636"}}, "geometry": {"type": "Point", "coordinates": [-7.436074237408892, -42.62615044178214]}}, {"type": "Feature", "properties": {"norad_id": 67047, "name": "STARLINK-35779", "group": "last-30-days", "lat": -42.814826028226804, "lon": -4.585029307662811, "alt_km": 387.091476350678, "timestamp": "2025-12-27T14:26:29.245930+00:00", "meta": {"OBJECT_NAME": "STARLINK-35779", "OBJECT_ID": "2025-294T", "EPOCH": "2025-12-27T06:00:02.000160", "MEAN_MOTION": 15.62464409, "ECCENTRICITY": 0.00013657, "INCLINATION": 42.9991, "RA_OF_ASC_NODE": 93.6339, "ARG_OF_PERICENTER": 280.8765, "MEAN_ANOMALY": 164.8841, "EPHEMERIS_TYPE": 0, "CLASSIFICATION_TYPE": "U", "NORAD_CAT_ID": 67047, "ELEMENT_SET_NO": 999, "REV_AT_EPOCH": 244, "BSTAR": -0.023563982, "MEAN_MOTION_DOT": -0.01904716, "MEAN_MOTION_DDOT": 0}, "tle": {"line1": "1 67047U 25294T   25361.25002315 -.01904716  00000+0 -23564-1 0  9991", "line2": "2 67047  42.9991  93.6339 0001365 280.8765 164.8841 15.62464409  2447"}}, "geometry": {"type": "Point", "coordinates": [-4.585029307662811, -42.814826028226804]}}, {"type": "Feature", "properties": {"norad_id": 67048, "name": "STARLINK-35905", "group": "last-30-days", "lat": -42.92571908511214, "lon": -1.95432839366765, "alt_km": 387.24809697995806, "timestamp": "2025-12-27T14:26:29.245940+00:00", "meta": {"OBJECT_NAME": "STARLINK-35905", "OBJECT_ID": "2025-294U", "EPOCH": "2025-12-27T06:00:02.000160", "MEAN_MOTION": 15.62472293, "ECCENTRICITY": 0.00011333, "INCLINATION": 42.9994, "RA_OF_ASC_NODE": 93.6284, "ARG_OF_PERICENTER": 277.9461, "MEAN_ANOMALY": 169.7509, "EPHEMERIS_TYPE": 0, "CLASSIFICATION_TYPE": "U", "NORAD_CAT_ID": 67048, "ELEMENT_SET_NO": 999, "REV_AT_EPOCH": 255, "BSTAR": -0.023828474, "MEAN_MOTION_DOT": -0.01923953, "MEAN_MOTION_DDOT": 0}, "tle": {"line1": "1 67048U 25294U   25361.25002315 -.01923953  00000+0 -23828-1 0  9999", "line2": "2 67048  42.9994  93.6284 0001133 277.9461 169.7509 15.62472293  2550"}}, "geometry": {"type": "Point", "coordinates": [-1.95432839366765, -42.92571908511214]}}, {"type": "Feature", "properties": {"norad_id": 67049, "name": "STARLINK-35877", "group": "last-30-days", "lat": -42.97689187058993, "lon": 0.8732738209598027, "alt_km": 387.2353875920462, "timestamp": "2025-12-27T14:26:29.245952+00:00", "meta": {"OBJECT_NAME": "STARLINK-35877", "OBJECT_ID": "2025-294V", "EPOCH": "2025-12-27T06:00:02.000160", "MEAN_MOTION": 15.62454052, "ECCENTRICITY": 0.00012413, "INCLINATION": 42.9994, "RA_OF_ASC_NODE": 93.6231, "ARG_OF_PERICENTER": 279.7344, "MEAN_ANOMALY": 170.0649, "EPHEMERIS_TYPE": 0, "CLASSIFICATION_TYPE": "U", "NORAD_CAT_ID": 67049, "ELEMENT_SET_NO": 999, "REV_AT_EPOCH": 263, "BSTAR": -0.023882259, "MEAN_MOTION_DOT": -0.01926632, "MEAN_MOTION_DDOT": 0}, "tle": {"line1": "1 67049U 25294V   25361.25002315 -.01926632  00000+0 -23882-1 0  9997", "line2": "2 67049  42.9994  93.6231 0001241 279.7344 170.0649 15.62454052  2635"}}, "geometry": {"type": "Point", "coordinates": [0.8732738209598027, -42.97689187058993]}}, {"type": "Feature", "properties": {"norad_id": 67050, "name": "STARLINK-36078", "group": "last-30-days", "lat": -42.95827110108637, "lon": 3.7116588183074453, "alt_km": 387.3331570514547, "timestamp": "2025-12-27T14:26:29.245962+00:00", "meta": {"OBJECT_NAME": "STARLINK-36078", "OBJECT_ID": "2025-294W", "EPOCH": "2025-12-27T06:00:02.000160", "MEAN_MOTION": 15.62433683, "ECCENTRICITY": 0.00011563, "INCLINATION": 42.9997, "RA_OF_ASC_NODE": 93.6179, "ARG_OF_PERICENTER": 280.02, "MEAN_ANOMALY": 171.8857, "EPHEMERIS_TYPE": 0, "CLASSIFICATION_TYPE": "U", "NORAD_CAT_ID": 67050, "ELEMENT_SET_NO": 999, "REV_AT_EPOCH": 255, "BSTAR": -0.02382971, "MEAN_MOTION_DOT": -0.01921469, "MEAN_MOTION_DDOT": 0}, "tle": {"line1": "1 67050U 25294W   25361.25002315 -.01921469  00000+0 -23830-1 0  9995", "line2": "2 67050  42.9997  93.6179 0001156 280.0200 171.8857 15.62433683  2550"}}, "geometry": {"type": "Point", "coordinates": [3.7116588183074453, -42.95827110108637]}}]}